H1 CPF 01  gfz 2021 11 11 13  8152 terrasarx 
H2 0702601  6201 31698    2021 11 11 12 59 42 2021 11 16 00 00 42   120 1 1  0 0 0
H9
10 0 59532   2862.000000  0    -288810.088  -4699756.148  -5035632.997
10 0 59532   2982.000000  0    -544732.525  -5294056.620  -4381708.136
10 0 59532   3102.000000  0    -800734.694  -5791790.816  -3651024.364
10 0 59532   3222.000000  0   -1050582.478  -6184245.487  -2856313.224
10 0 59532   3342.000000  0   -1288004.643  -6464637.883  -2011460.212
10 0 59532   3462.000000  0   -1506839.337  -6628246.290  -1131264.334
10 0 59532   3582.000000  0   -1701181.230  -6672501.143   -231176.429
10 0 59532   3702.000000  0   -1865525.862  -6597033.668    672977.571
10 0 59532   3822.000000  0   -1994907.785  -6403680.541   1565282.599
10 0 59532   3942.000000  0   -2085028.469  -6096443.941   2430023.669
10 0 59532   4062.000000  0   -2132370.269  -5681407.458   3251971.790
10 0 59532   4182.000000  0   -2134293.316  -5166610.087   4016659.340
10 0 59532   4302.000000  0   -2089113.194  -4561882.751   4710638.943
10 0 59532   4422.000000  0   -1996158.215  -3878652.359   5321721.335
10 0 59532   4542.000000  0   -1855805.210  -3129716.596   5839189.294
10 0 59532   4662.000000  0   -1669491.506  -2328995.060   6253981.242
10 0 59532   4782.000000  0   -1439703.920  -1491265.279   6558843.560
10 0 59532   4902.000000  0   -1169946.346   -631886.543   6748451.900
10 0 59532   5022.000000  0    -864686.706    233483.996   6819497.610
10 0 59532   5142.000000  0    -529283.278   1089175.485   6770741.689
10 0 59532   5262.000000  0    -169890.521   1919786.672   6603035.680
10 0 59532   5382.000000  0     206653.735   2710462.812   6319307.615
10 0 59532   5502.000000  0     592957.451   3447161.146   5924513.812
10 0 59532   5622.000000  0     981217.608   4116902.406   5425557.817
10 0 59532   5742.000000  0    1363375.827   4708003.718   4831175.606
10 0 59532   5862.000000  0    1731283.657   5210289.139   4151788.200
10 0 59532   5982.000000  0    2076874.185   5615271.803   3399323.898
10 0 59532   6102.000000  0    2392337.675   5916307.298   2587012.751
10 0 59532   6222.000000  0    2670294.404   6108712.572   1729151.170
10 0 59532   6342.000000  0    2903963.146   6189844.299    840845.046
10 0 59532   6462.000000  0    3087317.908   6159135.716    -62263.357
10 0 59532   6582.000000  0    3215231.309   6018092.486   -964278.483
10 0 59532   6702.000000  0    3283600.783   5770246.431  -1849339.628
10 0 59532   6822.000000  0    3289453.773   5421069.408  -2701907.186
10 0 59532   6942.000000  0    3231029.789   4977848.726  -3507041.942
10 0 59532   7062.000000  0    3107836.179   4449527.039  -4250669.850
10 0 59532   7182.000000  0    2920677.631   3846513.552  -4919826.446
10 0 59532   7302.000000  0    2671658.940   3180471.077  -5502878.244
10 0 59532   7422.000000  0    2364162.600   2464083.681  -5989717.068
10 0 59532   7542.000000  0    2002800.754   1710810.512  -6371925.090
10 0 59532   7662.000000  0    1593343.645    934631.520  -6642908.277
10 0 59532   7782.000000  0    1142627.300    149790.304  -6797999.273
10 0 59532   7902.000000  0     658439.376   -629462.929  -6834530.457
10 0 59532   8022.000000  0     149385.737  -1389125.040  -6751873.591
10 0 59532   8142.000000  0    -375258.461  -2115684.338  -6551448.288
10 0 59532   8262.000000  0    -905713.125  -2796354.833  -6236701.871
10 0 59532   8382.000000  0   -1431871.321  -3419298.804  -5813056.534
10 0 59532   8502.000000  0   -1943486.926  -3973831.355  -5287825.041
10 0 59532   8622.000000  0   -2430370.701  -4450606.490  -4670096.826
10 0 59532   8742.000000  0   -2882592.117  -4841781.259  -3970591.958
10 0 59532   8862.000000  0   -3290681.670  -5141152.363  -3201484.127
10 0 59532   8982.000000  0   -3645829.523  -5344263.256  -2376196.157
10 0 59532   9102.000000  0   -3940076.929  -5448478.993  -1509169.688
10 0 59532   9222.000000  0   -4166495.014  -5453025.948   -615612.164
10 0 59532   9342.000000  0   -4319345.626  -5358994.641    288774.111
10 0 59532   9462.000000  0   -4394220.065  -5169304.965   1188074.960
10 0 59532   9582.000000  0   -4388151.977  -4888633.778   2066453.751
10 0 59532   9702.000000  0   -4299700.450  -4523306.064   2908439.549
10 0 59532   9822.000000  0   -4129002.087  -4081153.804   3699207.147
10 0 59532   9942.000000  0   -3877790.978  -3571346.209   4424844.167
10 0 59532  10062.000000  0   -3549385.209  -3004194.570   5072599.148
10 0 59532  10182.000000  0   -3148641.656  -2390938.240   5631104.307
10 0 59532  10302.000000  0   -2681880.802  -1743518.148   6090571.802
10 0 59532  10422.000000  0   -2156783.058  -1074341.174   6442961.488
10 0 59532  10542.000000  0   -1582257.843   -396038.643   6682116.973
10 0 59532  10662.000000  0    -968287.936    278773.513   6803865.014
10 0 59532  10782.000000  0    -325755.813    937727.531   6806082.844
10 0 59532  10902.000000  0     333748.860   1568929.838   6688733.421
10 0 59532  11022.000000  0     998137.817   2161175.601   6453866.209
10 0 59532  11142.000000  0    1655045.121   2704147.463   6105582.794
10 0 59532  11262.000000  0    2292056.272   3188595.712   5649970.057
10 0 59532  11382.000000  0    2896943.316   3606499.031   5095000.851
10 0 59532  11502.000000  0    3457902.558   3951201.895   4450399.945
10 0 59532  11622.000000  0    3963786.895   4217523.766   3727477.825
10 0 59532  11742.000000  0    4404331.642   4401842.638   2938938.224
10 0 59532  11862.000000  0    4770369.811   4502146.309   2098652.878
10 0 59532  11982.000000  0    5054024.870   4518051.213   1221415.129
10 0 59532  12102.000000  0    5248883.403   4450788.306    322674.181
10 0 59532  12222.000000  0    5350138.486   4303155.163   -581746.117
10 0 59532  12342.000000  0    5354699.708   4079435.726  -1475934.836
10 0 59532  12462.000000  0    5261269.504   3785290.450  -2344181.808
10 0 59532  12582.000000  0    5070383.270   3427619.041  -3171259.979
10 0 59532  12702.000000  0    4784412.474   3014401.142  -3942696.012
10 0 59532  12822.000000  0    4407531.316   2554518.796  -4645024.863
10 0 59532  12942.000000  0    3945647.876   2057563.314  -5266021.773
10 0 59532  13062.000000  0    3406303.121   1533633.771  -5794907.711
10 0 59532  13182.000000  0    2798540.081    993131.839  -6222527.230
10 0 59532  13302.000000  0    2132745.850    446556.497  -6541495.758
10 0 59532  13422.000000  0    1420471.636    -95696.649  -6746315.059
10 0 59532  13542.000000  0     674233.751   -623528.948  -6833459.732
10 0 59532  13662.000000  0     -92704.746  -1127322.859  -6801430.980
10 0 59532  13782.000000  0    -866564.131  -1598112.074  -6650778.094
10 0 59532  13902.000000  0   -1633289.352  -2027736.925  -6384091.057
10 0 59532  14022.000000  0   -2378799.892  -2408983.855  -6005960.817
10 0 59532  14142.000000  0   -3089242.821  -2735705.373  -5522908.215
10 0 59532  14262.000000  0   -3751247.658  -3002920.620  -4943283.664
10 0 59532  14382.000000  0   -4352179.895  -3206894.544  -4277134.208
10 0 59532  14502.000000  0   -4880385.708  -3345192.368  -3536039.384
10 0 59532  14622.000000  0   -5325424.374  -3416709.004  -2732918.566
10 0 59532  14742.000000  0   -5678282.941  -3421672.218  -1881810.755
10 0 59532  14862.000000  0   -5931566.813  -3361618.462   -997630.319
10 0 59532  14982.000000  0   -6079661.836  -3239341.932    -95903.417
10 0 59532  15102.000000  0   -6118863.144  -3058817.285    807509.994
10 0 59532  15222.000000  0   -6047467.177  -2825098.125   1696703.769
10 0 59532  15342.000000  0   -5865821.638  -2544192.483   2556015.906
10 0 59532  15462.000000  0   -5576333.756  -2222919.397   3370312.096
10 0 59532  15582.000000  0   -5183438.413  -1868751.125   4125260.045
10 0 59532  15702.000000  0   -4693522.806  -1489642.658   4807586.530
10 0 59532  15822.000000  0   -4114814.177  -1093855.649   5405310.127
10 0 59532  15942.000000  0   -3457234.347   -689780.967   5907949.527
10 0 59532  16062.000000  0   -2732221.877   -285761.851   6306704.510
10 0 59532  16182.000000  0   -1952525.182    110077.591   6594604.462
10 0 59532  16302.000000  0   -1131973.009    489993.440   6766622.869
10 0 59532  16422.000000  0    -285227.304    846771.492   6819759.480
10 0 59532  16542.000000  0     572478.701   1173863.086   6753088.941
10 0 59532  16662.000000  0    1425613.446   1465504.998   6567775.986
10 0 59532  16782.000000  0    2258627.371   1716821.311   6267056.038
10 0 59532  16902.000000  0    3056235.504   1923905.006   5856182.503
10 0 59532  17022.000000  0    3803699.875   2083879.090   5342341.060
10 0 59532  17142.000000  0    4487104.991   2194935.716   4734529.469
10 0 59532  17262.000000  0    5093621.648   2256353.814   4043407.048
10 0 59532  17382.000000  0    5611757.852   2268493.863   3281112.744
10 0 59532  17502.000000  0    6031585.101   2232767.969   2461050.634
10 0 59532  17622.000000  0    6344936.390   2151588.642   1597654.430
10 0 59532  17742.000000  0    6545573.823   2028295.478    706128.417
10 0 59532  17862.000000  0    6629317.369   1867061.325   -197827.619
10 0 59532  17982.000000  0    6594132.351   1672781.974  -1098304.259
10 0 59532  18102.000000  0    6440172.821   1450950.108  -1979470.312
10 0 59532  18222.000000  0    6169784.108   1207517.438  -2825858.043
10 0 59532  18342.000000  0    5787459.338    948749.030  -3622641.206
10 0 59532  18462.000000  0    5299753.277    681073.953  -4355896.972
10 0 59532  18582.000000  0    4715156.825    410935.780  -5012847.652
10 0 59532  18702.000000  0    4043936.944    144646.522  -5582076.944
10 0 59532  18822.000000  0    3297946.710   -111752.211  -6053719.512
10 0 59532  18942.000000  0    2490408.502   -352618.427  -6419622.398
10 0 59532  19062.000000  0    1635675.178   -572827.291  -6673473.862
10 0 59532  19182.000000  0     748976.140   -767874.771  -6810902.010
10 0 59532  19302.000000  0    -153851.552   -933965.527  -6829542.752
99
